QIANFAN-49              
1 62250U 24232P   25283.14479664  .00000134  00000+0  18893-3 0  9998
2 62250  89.0015  47.6388 0014516  26.1387 334.0494 13.50977361 59250
QIANFAN-50              
1 62251U 24232Q   25283.16949751  .00000125  00000+0  17535-3 0  9992
2 62251  89.0020  47.6409 0016194  26.7094 333.4887 13.50977906 59283
QIANFAN-51              
1 62252U 24232R   25283.15302932  .00000137  00000+0  19395-3 0  9995
2 62252  89.0014  47.6404 0013831  31.4049 328.7925 13.50974788 59274
QIANFAN-52              
1 62253U 24232S   25283.18179747  .00000131  00000+0  18401-3 0  9996
2 62253  89.0010  47.5135 0015585  22.8639 337.3203 13.50977362 59364
QIANFAN-53              
1 62254U 24232T   25283.16129477  .00000133  00000+0  18694-3 0  9996
2 62254  89.0018  47.6153 0014511  24.5367 335.6472 13.50973073 59329
QIANFAN-54              
1 62255U 24232U   25283.20239207  .00000127  00000+0  17820-3 0  9998
2 62255  89.0009  47.2951 0003642  79.0367 281.1193 13.50975221 90833
QIANFAN-55              
1 62785U 25016A   25283.15435642  .00000039  00000+0  42141-4 0  9999
2 62785  88.9743 109.7788 0017547 166.6766 193.4852 13.50966988 38605
QIANFAN-56              
1 62786U 25016B   25283.17085523  .00000040  00000+0  42786-4 0  9998
2 62786  88.9718 109.6307 0016153 168.5512 191.6009 13.50975183 38652
